[{"OBJECT_NAME":"ALOS (DAICHI)","OBJECT_ID":"2006-002A","EPOCH":"2026-04-02T20:58:18.437664","MEAN_MOTION":14.69889016,"ECCENTRICITY":0.0001041,"INCLINATION":98.1257,"RA_OF_ASC_NODE":48.7154,"ARG_OF_PERICENTER":113.3988,"MEAN_ANOMALY":246.7327,"EPHEMERIS_TYPE":0,"CLASSIFICATION_TYPE":"U","NORAD_CAT_ID":28931,"ELEMENT_SET_NO":999,"REV_AT_EPOCH":7703,"BSTAR":0.00036847,"MEAN_MOTION_DOT":2.155e-5,"MEAN_MOTION_DDOT":0},{"OBJECT_NAME":"H-2A R/B","OBJECT_ID":"2006-002B","EPOCH":"2026-04-02T16:33:34.518240","MEAN_MOTION":15.16981461,"ECCENTRICITY":0.0052436,"INCLINATION":98.2457,"RA_OF_ASC_NODE":241.794,"ARG_OF_PERICENTER":159.1769,"MEAN_ANOMALY":201.1614,"EPHEMERIS_TYPE":0,"CLASSIFICATION_TYPE":"U","NORAD_CAT_ID":28932,"ELEMENT_SET_NO":999,"REV_AT_EPOCH":9807,"BSTAR":0.00078734,"MEAN_MOTION_DOT":0.00016052,"MEAN_MOTION_DDOT":0},{"OBJECT_NAME":"RESURS-DK 1","OBJECT_ID":"2006-021A","EPOCH":"2026-04-02T16:04:01.026048","MEAN_MOTION":15.12892794,"ECCENTRICITY":0.0001777,"INCLINATION":69.9334,"RA_OF_ASC_NODE":174.9918,"ARG_OF_PERICENTER":40.3664,"MEAN_ANOMALY":319.7634,"EPHEMERIS_TYPE":0,"CLASSIFICATION_TYPE":"U","NORAD_CAT_ID":29228,"ELEMENT_SET_NO":999,"REV_AT_EPOCH":9115,"BSTAR":0.00016764,"MEAN_MOTION_DOT":2.851e-5,"MEAN_MOTION_DDOT":0},{"OBJECT_NAME":"CZ-4B R/B","OBJECT_ID":"2006-046C","EPOCH":"2026-04-02T13:16:11.173440","MEAN_MOTION":15.1715188,"ECCENTRICITY":0.00331572,"INCLINATION":97.5539,"RA_OF_ASC_NODE":137.3952,"ARG_OF_PERICENTER":182.0851,"MEAN_ANOMALY":178.0249,"EPHEMERIS_TYPE":0,"CLASSIFICATION_TYPE":"U","NORAD_CAT_ID":29507,"ELEMENT_SET_NO":999,"REV_AT_EPOCH":6366,"BSTAR":0.00029599385,"MEAN_MOTION_DOT":5.887e-5,"MEAN_MOTION_DDOT":0},{"OBJECT_NAME":"CZ-2C R/B","OBJECT_ID":"2007-010B","EPOCH":"2026-04-02T12:54:49.994496","MEAN_MOTION":14.20255176,"ECCENTRICITY":0.00582467,"INCLINATION":98.4003,"RA_OF_ASC_NODE":204.6245,"ARG_OF_PERICENTER":223.9956,"MEAN_ANOMALY":135.6578,"EPHEMERIS_TYPE":0,"CLASSIFICATION_TYPE":"U","NORAD_CAT_ID":31114,"ELEMENT_SET_NO":999,"REV_AT_EPOCH":98310,"BSTAR":0.00010200257,"MEAN_MOTION_DOT":1.8e-6,"MEAN_MOTION_DDOT":0},{"OBJECT_NAME":"COSMOS 2428","OBJECT_ID":"2007-029A","EPOCH":"2026-04-02T14:31:12.975456","MEAN_MOTION":14.12948671,"ECCENTRICITY":0.00097,"INCLINATION":70.9425,"RA_OF_ASC_NODE":153.15,"ARG_OF_PERICENTER":252.2587,"MEAN_ANOMALY":107.7476,"EPHEMERIS_TYPE":0,"CLASSIFICATION_TYPE":"U","NORAD_CAT_ID":31792,"ELEMENT_SET_NO":999,"REV_AT_EPOCH":96747,"BSTAR":1.473e-5,"MEAN_MOTION_DOT":-2.0e-7,"MEAN_MOTION_DDOT":0},{"OBJECT_NAME":"SL-16 R/B","OBJECT_ID":"2007-029B","EPOCH":"2026-04-02T20:04:05.362752","MEAN_MOTION":14.1484388,"ECCENTRICITY":0.0002875,"INCLINATION":70.9742,"RA_OF_ASC_NODE":121.6284,"ARG_OF_PERICENTER":277.3899,"MEAN_ANOMALY":257.0162,"EPHEMERIS_TYPE":0,"CLASSIFICATION_TYPE":"U","NORAD_CAT_ID":31793,"ELEMENT_SET_NO":999,"REV_AT_EPOCH":96878,"BSTAR":-1.5193e-5,"MEAN_MOTION_DOT":-7.7e-7,"MEAN_MOTION_DDOT":0},{"OBJECT_NAME":"KORONAS-FOTON","OBJECT_ID":"2009-003A","EPOCH":"2026-04-02T21:05:39.120864","MEAN_MOTION":15.44014391,"ECCENTRICITY":0.001152,"INCLINATION":82.4279,"RA_OF_ASC_NODE":250.7135,"ARG_OF_PERICENTER":70.9796,"MEAN_ANOMALY":289.2698,"EPHEMERIS_TYPE":0,"CLASSIFICATION_TYPE":"U","NORAD_CAT_ID":33504,"ELEMENT_SET_NO":999,"REV_AT_EPOCH":94947,"BSTAR":0.00052707,"MEAN_MOTION_DOT":0.00024158,"MEAN_MOTION_DDOT":0},{"OBJECT_NAME":"CZ-2C R/B","OBJECT_ID":"2011-030B","EPOCH":"2026-04-02T09:36:09.358848","MEAN_MOTION":14.81307565,"ECCENTRICITY":0.00509691,"INCLINATION":97.8585,"RA_OF_ASC_NODE":49.1963,"ARG_OF_PERICENTER":273.4339,"MEAN_ANOMALY":202.0439,"EPHEMERIS_TYPE":0,"CLASSIFICATION_TYPE":"U","NORAD_CAT_ID":37731,"ELEMENT_SET_NO":999,"REV_AT_EPOCH":79360,"BSTAR":0.00026404357,"MEAN_MOTION_DOT":2.051e-5,"MEAN_MOTION_DDOT":0},{"OBJECT_NAME":"H-2A R/B","OBJECT_ID":"2012-025E","EPOCH":"2026-04-02T21:16:18.505056","MEAN_MOTION":14.95342386,"ECCENTRICITY":0.0043111,"INCLINATION":98.4773,"RA_OF_ASC_NODE":61.8793,"ARG_OF_PERICENTER":232.7624,"MEAN_ANOMALY":126.9658,"EPHEMERIS_TYPE":0,"CLASSIFICATION_TYPE":"U","NORAD_CAT_ID":38341,"ELEMENT_SET_NO":999,"REV_AT_EPOCH":75183,"BSTAR":0.00038944,"MEAN_MOTION_DOT":4.306e-5,"MEAN_MOTION_DDOT":0},{"OBJECT_NAME":"SHIJIAN-16 (SJ-16)","OBJECT_ID":"2013-057A","EPOCH":"2026-04-02T19:54:09.482688","MEAN_MOTION":14.92437502,"ECCENTRICITY":0.0015316,"INCLINATION":74.9718,"RA_OF_ASC_NODE":139.3903,"ARG_OF_PERICENTER":49.8547,"MEAN_ANOMALY":310.398,"EPHEMERIS_TYPE":0,"CLASSIFICATION_TYPE":"U","NORAD_CAT_ID":39358,"ELEMENT_SET_NO":999,"REV_AT_EPOCH":67510,"BSTAR":0.00019056,"MEAN_MOTION_DOT":1.929e-5,"MEAN_MOTION_DDOT":0},{"OBJECT_NAME":"SL-4 R/B","OBJECT_ID":"2014-021B","EPOCH":"2026-04-02T17:02:42.421344","MEAN_MOTION":15.4006541,"ECCENTRICITY":0.0094676,"INCLINATION":51.6056,"RA_OF_ASC_NODE":220.0208,"ARG_OF_PERICENTER":190.5616,"MEAN_ANOMALY":169.3382,"EPHEMERIS_TYPE":0,"CLASSIFICATION_TYPE":"U","NORAD_CAT_ID":39679,"ELEMENT_SET_NO":999,"REV_AT_EPOCH":65997,"BSTAR":0.0005008,"MEAN_MOTION_DOT":0.00023478,"MEAN_MOTION_DDOT":0},{"OBJECT_NAME":"ALOS-2","OBJECT_ID":"2014-029A","EPOCH":"2026-04-02T01:15:00.956160","MEAN_MOTION":14.79465602,"ECCENTRICITY":0.00019738,"INCLINATION":97.9196,"RA_OF_ASC_NODE":190.3096,"ARG_OF_PERICENTER":99.9401,"MEAN_ANOMALY":260.2034,"EPHEMERIS_TYPE":0,"CLASSIFICATION_TYPE":"U","NORAD_CAT_ID":39766,"ELEMENT_SET_NO":999,"REV_AT_EPOCH":64032,"BSTAR":0.00025604263,"MEAN_MOTION_DOT":1.861e-5,"MEAN_MOTION_DDOT":0},{"OBJECT_NAME":"YAOGAN-29","OBJECT_ID":"2015-069A","EPOCH":"2026-04-02T19:32:40.035264","MEAN_MOTION":14.83019656,"ECCENTRICITY":6.3e-6,"INCLINATION":98.0105,"RA_OF_ASC_NODE":121.3048,"ARG_OF_PERICENTER":327.2643,"MEAN_ANOMALY":32.8566,"EPHEMERIS_TYPE":0,"CLASSIFICATION_TYPE":"U","NORAD_CAT_ID":41038,"ELEMENT_SET_NO":999,"REV_AT_EPOCH":55945,"BSTAR":6.0846e-6,"MEAN_MOTION_DOT":-5.0e-8,"MEAN_MOTION_DDOT":0},{"OBJECT_NAME":"ASTRO-H (HITOMI)","OBJECT_ID":"2016-012A","EPOCH":"2026-04-02T15:04:30.852768","MEAN_MOTION":15.10160383,"ECCENTRICITY":0.00096742,"INCLINATION":30.9993,"RA_OF_ASC_NODE":202.0484,"ARG_OF_PERICENTER":212.6611,"MEAN_ANOMALY":147.3429,"EPHEMERIS_TYPE":0,"CLASSIFICATION_TYPE":"U","NORAD_CAT_ID":41337,"ELEMENT_SET_NO":999,"REV_AT_EPOCH":55585,"BSTAR":0.00021405063,"MEAN_MOTION_DOT":3.678e-5,"MEAN_MOTION_DDOT":0},{"OBJECT_NAME":"HXMT (HUIYAN)","OBJECT_ID":"2017-034A","EPOCH":"2026-04-02T19:12:49.662720","MEAN_MOTION":15.1777682,"ECCENTRICITY":0.0031175,"INCLINATION":43.0136,"RA_OF_ASC_NODE":242.5934,"ARG_OF_PERICENTER":25.0696,"MEAN_ANOMALY":335.1659,"EPHEMERIS_TYPE":0,"CLASSIFICATION_TYPE":"U","NORAD_CAT_ID":42758,"ELEMENT_SET_NO":999,"REV_AT_EPOCH":48620,"BSTAR":0.00043858,"MEAN_MOTION_DOT":8.903e-5,"MEAN_MOTION_DDOT":0}]
