ALOS (DAICHI)           
1 28931U 06002A   26092.87382451  .00002155  00000+0  36847-3 0  9991
2 28931  98.1257  48.7154 0001041 113.3988 246.7327 14.69889016 77035
H-2A R/B                
1 28932U 06002B   26092.68998285  .00016052  00000+0  78734-3 0  9991
2 28932  98.2457 241.7940 0052436 159.1769 201.1614 15.16981461 98077
RESURS-DK 1             
1 29228U 06021A   26092.66945632  .00002851  00000+0  16764-3 0  9994
2 29228  69.9334 174.9918 0001777  40.3664 319.7634 15.12892794 91150
CZ-4B R/B               
1 29507U 06046C   26092.55290710  .00005887  00000+0  29599-3 0  9991
2 29507  97.5539 137.3952 0033157 182.0851 178.0249 15.17151880 63666
CZ-2C R/B               
1 31114U 07010B   26092.53807864  .00000180  00000+0  10200-3 0  9992
2 31114  98.4003 204.6245 0058246 223.9956 135.6578 14.20255176983109
COSMOS 2428             
1 31792U 07029A   26092.60501129 -.00000020  00000+0  14730-4 0  9994
2 31792  70.9425 153.1500 0009700 252.2587 107.7476 14.12948671967471
SL-16 R/B               
1 31793U 07029B   26092.83617318 -.00000077  00000+0 -15193-4 0  9995
2 31793  70.9742 121.6284 0002875 277.3899 257.0162 14.14843880968787
KORONAS-FOTON           
1 33504U 09003A   26092.87892501  .00024158  00000+0  52707-3 0  9999
2 33504  82.4279 250.7135 0011520  70.9796 289.2698 15.44014391949478
CZ-2C R/B               
1 37731U 11030B   26092.40010832  .00002051  00000+0  26404-3 0  9999
2 37731  97.8585  49.1963 0050969 273.4339 202.0439 14.81307565793602
H-2A R/B                
1 38341U 12025E   26092.88632529  .00004306  00000+0  38944-3 0  9994
2 38341  98.4773  61.8793 0043111 232.7624 126.9658 14.95342386751835
SHIJIAN-16 (SJ-16)      
1 39358U 13057A   26092.82927642  .00001929  00000+0  19056-3 0  9997
2 39358  74.9718 139.3903 0015316  49.8547 310.3980 14.92437502675107
SL-4 R/B                
1 39679U 14021B   26092.71021321  .00023478  00000+0  50080-3 0  9997
2 39679  51.6056 220.0208 0094676 190.5616 169.3382 15.40065410659977
ALOS-2                  
1 39766U 14029A   26092.05209440  .00001861  00000+0  25604-3 0  9995
2 39766  97.9196 190.3096 0001973  99.9401 260.2034 14.79465602640320
YAOGAN-29               
1 41038U 15069A   26092.81435226 -.00000005  00000+0  60846-5 0  9991
2 41038  98.0105 121.3048 0000063 327.2643  32.8566 14.83019656559457
ASTRO-H (HITOMI)        
1 41337U 16012A   26092.62813487  .00003678  00000+0  21405-3 0  9994
2 41337  30.9993 202.0484 0009674 212.6611 147.3429 15.10160383555854
HXMT (HUIYAN)           
1 42758U 17034A   26092.80057480  .00008903  00000+0  43858-3 0  9992
2 42758  43.0136 242.5934 0031175  25.0696 335.1659 15.17776820486205
